0 SL-16 DEB
1 25409U 98045C   13282.87640519  .00000073  00000-0  10636-3 0  2769
2 25409 071.0795 086.5842 0193492 033.0647 036.4340 13.74104862762477
0 SL-16 DEB
1 25409U 98045C   13287.68522609  .00000034  00000-0  70048-4 0  2785
2 25409 071.0805 077.1837 0193685 026.1295 064.6524 13.74106230763137
0 SL-16 DEB
1 25409U 98045C   13289.72426550  .00000061  00000-0  95473-4 0  2790
2 25409 071.0810 073.1979 0193790 023.1881 071.3577 13.74106621763419
0 SL-16 DEB
1 25409U 98045C   13291.83894057  .00000116  00000-0  14667-3 0  2804
2 25409 071.0814 069.0649 0193897 020.1517 092.2084 13.74107146763702
0 SL-16 DEB
1 25409U 98045C   13294.82331809  .00000153  00000-0  18060-3 0  2810
2 25409 071.0816 063.2315 0194055 015.8610 095.3034 13.74108319764110
